#dP2022  1 25  0  0  0.00000000      96 __u+U ITR00 FIT  IAC
## 2194 172800.00000000   900.00000000 59604 0.0000000000000
+  126   C01C02C03C04C05C06C07C08C09C10C11C12C13C14C16C19C20
+        C21C22C23C24C25C26C27C28C29C30C32C33C34C35C36C37C38
+        C39C40C41C42C43C44C45C46C59C60E01E02E03E04E05E07E08
+        E09E11E12E13E14E15E18E19E21E24E25E26E27E30E31E33E36
+        G01G02G03G04G05G06G07G08G09G10G11G12G13G14G15G16G17
+        G18G19G20G21G23G24G25G26G27G28G29G30G31G32J01J02J03
+        J07R01R02R03R04R05R06R07R08R09R10R11R12R13R14R15R17
+        R18R19R20R21R22R23R24  0  0  0  0  0  0  0  0  0  0
++        15  0 15 15 14  9  9  9  8  8  9  9  8  9  9  7  7
++         7  7  7  7  7  7  7  7  7  7  7  7  7  7  7  7  8
++         8  8  7  7  7  7  7  7  0 14  4  4  5  4  5  4  4
++         4  4  4  4  4  4  4  4  4  4  4  4  4  4  4  4  4
++         3  4  4  4  4  3  4  3  4  3  4  3  4  3  4  4  3
++         4  4  4  3  3  3  4  4  3  4  4  3  4  3  8  8  8
++         0  6  5  6  6  6 13  6  5  6 13  8  6  7  6  6  6
++         6  7  7  6  7 13  6  0  0  0  0  0  0  0  0  0  0
%c M  cc GPS ccc cccc cccc cccc cccc ccccc ccccc ccccc ccccc
%c cc cc ccc ccc cccc cccc cccc cccc ccccc ccccc ccccc ccccc
%f  0.0000000  0.000000000  0.00000000000  0.000000000000000
%f  0.0000000  0.000000000  0.00000000000  0.000000000000000
%i    0    0    0    0      0      0      0      0         0
%i    0    0    0    0      0      0      0      0         0
/* INFORMATION & ANALYSIS CENTER (IAC)            RAPID DATA
/* S/V CLOCKS ARE ALIGNED TO GNSS TIME                      
/* G:C1WC2W R:C1PC2P E:C1XC5X C:C2IC6I J:C1CC2S             
/* PCV:IGS14_2194 OL/AL:FES2004  NONE     YN ORB:CoN CLK:CoN
*  2022 01 25 10 15  0.00000000
PC01 -34333.084831  24510.994291    -28.005959   -200.089510
PC02      0.000000      0.000000      0.000000 999999.999999
PC03 -14713.993596  39475.323641   -766.490890    657.494977
PC04 -39627.395913  14445.719664    300.486449   -342.903610
PC05  21828.256422  36006.525890  -1509.370072   -504.276897
PC06  -4614.605381  38493.472733 -16316.370580    -63.596367
PC07  -8307.250060  25567.377411  32474.860581     29.083246
PC08 -19546.806702  32527.244972 -18512.088268     85.557973
PC09    597.204612  41161.035333  -7565.068156   -464.755473
PC10     32.510033  27302.618138  32428.896619    139.732909
PC11 -13694.380217   8560.598287  22831.934028   -249.216340
PC12 -15578.249427 -11998.902526  19838.511090   -435.019614
PC13 -13274.491257  32862.767662 -22916.835301   -136.517042
PC14 -23143.805973   3442.490217 -15148.686697    463.920271
PC16  -5718.480293  37233.776466 -18574.494347     65.282802
PC19  15601.079439 -10006.568346  20890.117174    905.643956
PC20  26444.963840   2427.347229   8626.552179   -810.541133
PC21 -22003.698511 -14216.389434   9610.145013   -970.924806
PC22  -4663.690218 -17136.190101  21520.644327   -958.621640
PC23  -5754.147138  21361.723632  17012.482633   -971.790409
PC24 -22675.894263   5179.700121 -15458.844130   -944.406736
PC25 -19455.693789  19929.837651   1943.216206   -789.330805
PC26 -12938.911774 -10080.374291 -22593.259200    788.597554
PC27  13414.038034  20405.392120 -13506.298946    666.857472
PC28   2826.575102  27544.227314   3486.275313     24.915483
PC29   8912.428300 -18762.542011 -18641.680927    506.109926
PC30  16390.668689   1535.700709 -22532.295240    491.921589
PC32  22103.189328  14055.493042  -9616.809016   -960.066556
PC33 -15615.939284  10060.816969 -20816.666261   -955.036108
PC34 -16290.627362   -520.937270  22647.251866   -484.027210
PC35  -3317.743381 -27417.555142  -4143.894470    109.000347
PC36  20149.063763 -19240.986683  -1473.519196   -878.676281
PC37  11723.571913  11307.782881  22666.568686   -952.238858
PC38 -23191.601206  33253.787652 -11878.788947    206.634004
PC39  -7109.103946  34539.114836 -22968.332087     34.703352
PC40 -12077.365248  19577.094690  35329.639529    238.648268
PC41   4273.763657  17083.025858 -21597.025824   -927.456225
PC42 -26632.185126  -3097.807184  -7673.962597   -929.291800
PC43  -9457.950171  18170.024038  18934.674784   -945.866022
PC44 -14103.154858 -20126.482847  13247.708144    543.009022
PC45   5545.413501 -21224.675086 -17235.928565    662.965124
PC46  22914.292352  -6438.781818  14528.297601   -133.069125
PC59      0.000000      0.000000      0.000000 999999.999999
PC60   7316.637734  41520.575551    352.676158     -0.270879
PE01  25247.349260   4618.070138  14729.703901   -566.214524
PE02 -25363.754633  -4506.494729 -14607.432894    275.880628
PE03 -23512.630385 -14866.291880 -10110.030282   -520.735946
PE04  18891.152944  -3061.469524  22582.062764   -950.245192
PE05 -14399.304924 -24407.926293   8551.919850   -215.358566
PE07  -2969.784222  19607.055904 -21975.712990   -632.081584
PE08 -18535.689072   3452.812595 -22819.859267   5866.377247
PE09   2603.871203 -19649.112231  21979.606812   5383.194358
PE11  10065.728144 -27737.452953  -2453.071164   4603.065742
PE12  17470.557789 -13700.891310 -19579.638173   4792.749795
PE13 -10357.910128  27550.255509   3117.621377    425.956811
PE14  11128.295950 -17525.283877 -22513.291417  -1722.348701
PE15 -17393.525101  13595.050140  19727.929493    767.260029
PE18   2996.131576  24036.641391  11574.164999  -1871.319092
PE19  23051.836465  16779.126265   7941.847436    486.184269
PE21   8846.606516  14758.202714  24080.043640   -713.271108
PE24  14789.574527 -16791.419195 -19375.220983  -1354.173133
PE25  -8599.753118 -14842.797779 -24121.958053   -561.423384
PE26   3437.169342  24694.982021 -15943.558603   -728.099221
PE27 -13553.786961  17022.573940  20076.439340   -217.322482
PE30 -28193.495356   8469.326478   3212.582537   -220.103779
PE31  27779.820951  -9250.042824  -4293.970004   -491.240125
PE33  14144.737724   8299.365677 -24629.894704   -460.060104
PE36  -2731.943161 -25237.092644  15242.176163   -322.940474
PG01 -13897.232138  21915.032024   4431.617450    448.374602
PG02  16427.508691  -4872.192634 -19665.331639   -649.470868
PG03 -16223.971103  12798.300973 -16729.067537    -92.417704
PG04  -6639.217551  15805.128983 -20262.989868   -193.247386
PG05  25926.866091  -5290.934919   2936.279918    -69.107001
PG06   9646.173426  12511.290258 -21267.131829    181.130715
PG07  -3149.915672  24066.506216  10557.942171    304.908738
PG08 -14497.892978   5469.058444  21585.967062    -53.531674
PG09   4100.428182  22353.348230 -13791.462685   -356.750066
PG10 -14007.277654 -12027.863807  19340.663660   -302.540765
PG11  17054.643698  -1775.669914 -20283.971340    -77.917174
PG12  19088.101186 -10663.038229 -15244.038857   -161.015183
PG13  17155.340587   3547.928803  19857.463493    250.904029
PG14  12876.543092  13078.996128  19216.021456    -75.410517
PG15  13894.382885  -7814.819098  20867.925920    -88.908659
PG16 -26814.599817   -378.159388   -299.269505   -460.508223
PG17  13132.349076  23048.785957   1112.202166    566.136819
PG18   3755.208998 -23989.296500  10640.813254    253.970440
PG19  16664.129685  19338.964075  -7921.361642    110.142244
PG20  25354.865758   -550.405099  -7446.158562    517.011080
PG21 -16553.059366  15071.222030  14471.241925    156.816889
PG23  -1312.240851 -15011.357315  21858.023454      7.724433
PG24  14585.112078 -19964.962955   8833.609421    276.808219
PG25   6575.647820 -15326.269560 -20890.854813    275.957236
PG26 -22855.155702  -6096.276669 -12461.177706    177.456578
PG27 -18900.023037  -6212.415298  17596.041386     87.399852
PG28  19595.582110  10432.867215  14934.350809    414.772484
PG29    -30.301561 -21156.966900 -16067.102937   -471.772982
PG30   4214.707453  19851.589701  17076.277185   -509.089249
PG31 -11968.973290 -10115.739670 -21519.574378   -161.588009
PG32 -16858.967190 -20449.177542  -2806.991247    -56.223133
PJ01 -26525.833457  14356.770222 -24885.182757    279.497191
PJ02 -31524.425274  25493.762482  16467.737487     -0.958737
PJ03 -26273.104017  26789.919491  24392.342807     -0.274448
PJ07      0.000000      0.000000      0.000000 999999.999999
PR01 -16413.572982 -15210.508256  12235.172565      7.112364
PR02 -22786.557377  -8731.661798  -7503.931080    507.610453
PR03 -14711.565322   3034.389169 -20591.520815     50.491151
PR04   1587.748721  12682.430817 -22046.532654    125.013980
PR05  16846.818692  15467.643370 -11258.637969     86.568527
PR06  22899.796554   7306.733532   8487.332451    -28.963077
PR07  14059.312940  -3598.087976  20999.704733     31.004969
PR08  -1667.248119 -12853.846099  22028.622408    -63.255450
PR09  20156.402690  -3799.381210  15223.136663     35.928165
PR10  21638.985512 -13425.237387    172.164114    -79.196353
PR11  10995.875590 -16082.831852 -16463.261391     46.685308
PR12  -6815.949297  -8701.611231 -22969.662439    297.881513
PR13 -19518.635181   3090.782010 -16153.793734    -17.472457
PR14 -21387.666215  13840.811440   1202.997452     73.610220
PR15 -10501.989640  15912.290616  16962.656981     98.659765
PR17  -8748.434336  13658.258361  19713.981933    495.695979
PR18  -2600.381850  24573.218759   6237.042076    105.012953
PR19   3864.691347  23293.335403  -9647.060375   -175.700073
PR20   9897.574136   6413.440380 -22597.534590    -63.686899
PR21   8365.658351 -14889.567681 -18931.556562   -272.786968
PR22   2304.722897 -24904.100689  -5280.374501   -160.338018
PR23  -6715.497783 -19571.076620  14919.838238    -27.986275
PR24 -10584.550512  -5459.949820  22578.049003     77.203719
EOF
